H1 CPF 01  gfz 2021 04 29 12  6192 terrasarx 
H2 0702601  6201 31698    2021 04 29 12 59 42 2021 05 04 00 00 42   120 1 1  0 0 0
H9
10 0 59333  79902.000000  0    -288843.502  -1356974.755   6736822.951
10 0 59333  80022.000000  0    -721476.460   -548672.690   6818013.522
10 0 59333  80142.000000  0   -1127229.054    276537.216   6779425.000
10 0 59333  80262.000000  0   -1498857.808   1103725.449   6621729.331
10 0 59333  80382.000000  0   -1829973.455   1917805.286   6347677.386
10 0 59333  80502.000000  0   -2115151.361   2703807.190   5962054.184
10 0 59333  80622.000000  0   -2350021.131   3447154.709   5471600.237
10 0 59333  80742.000000  0   -2531334.434   4133936.959   4884900.443
10 0 59333  80862.000000  0   -2657010.623   4751174.288   4212240.382
10 0 59333  80982.000000  0   -2726157.844   5287070.846   3465430.454
10 0 59333  81102.000000  0   -2739069.157   5731248.337   2657600.029
10 0 59333  81222.000000  0   -2697193.554   6074954.775   1802965.688
10 0 59333  81342.000000  0   -2603082.791   6311244.118    916577.606
10 0 59333  81462.000000  0   -2460314.427   6435121.933     14048.594
10 0 59333  81582.000000  0   -2273393.605   6443653.225   -888728.904
10 0 59333  81702.000000  0   -2047636.051   6336029.652  -1775873.015
10 0 59333  81822.000000  0   -1789033.313   6113590.177  -2631803.289
10 0 59333  81942.000000  0   -1504105.268   5779796.735  -3441518.986
10 0 59333  82062.000000  0   -1199745.760   5340171.261  -4190863.315
10 0 59333  82182.000000  0    -883064.104   4802192.497  -4866769.890
10 0 59333  82302.000000  0    -561226.233   4175157.507  -5457485.043
10 0 59333  82422.000000  0    -241298.732   3470011.401  -5952765.196
10 0 59333  82542.000000  0      69901.026   2699147.399  -6344045.144
10 0 59333  82662.000000  0     365944.585   1876183.256  -6624574.038
10 0 59333  82782.000000  0     640919.836   1015720.428  -6789521.150
10 0 59333  82902.000000  0     889544.859    133087.087  -6836050.723
10 0 59333  83022.000000  0    1107265.950   -755930.349  -6763365.161
10 0 59333  83142.000000  0    1290338.355  -1635363.411  -6572715.667
10 0 59333  83262.000000  0    1435889.082  -2489340.139  -6267382.443
10 0 59333  83382.000000  0    1541962.041  -3302364.760  -5852625.861
10 0 59333  83502.000000  0    1607543.378  -4059597.095  -5335606.535
10 0 59333  83622.000000  0    1632566.835  -4747124.555  -4725271.220
10 0 59333  83742.000000  0    1617899.834  -5352220.121  -4032208.862
10 0 59333  83862.000000  0    1565309.204  -5863585.845  -3268477.853
10 0 59333  83982.000000  0    1477406.453  -6271574.181  -2447403.390
10 0 59333  84102.000000  0    1357575.177  -6568381.445  -1583348.841
10 0 59333  84222.000000  0    1209881.200  -6748208.755   -691464.679
10 0 59333  84342.000000  0    1038966.078  -6807385.914    212580.912
10 0 59333  84462.000000  0     849928.864  -6744453.087   1112883.661
10 0 59333  84582.000000  0     648197.119  -6560199.381   1993591.172
10 0 59333  84702.000000  0     439391.879  -6257655.764   2839192.241
10 0 59333  84822.000000  0     229188.649  -5842040.657   3634799.109
10 0 59333  84942.000000  0      23178.129  -5320662.028   4366414.434
10 0 59333  85062.000000  0    -173268.598  -4702780.545   5021180.340
10 0 59333  85182.000000  0    -355127.642  -3999434.863   5587604.667
10 0 59333  85302.000000  0    -517839.272  -3223234.770   6055760.742
10 0 59333  85422.000000  0    -657412.429  -2388125.172   6417456.324
10 0 59333  85542.000000  0    -770514.503  -1509129.969   6666368.844
10 0 59333  85662.000000  0    -854544.767   -602079.938   6798150.327
10 0 59333  85782.000000  0    -907690.772    316673.740   6810499.861
10 0 59333  85902.000000  0    -928966.025   1230554.396   6703201.277
10 0 59333  86022.000000  0    -918227.752   2123058.409   6478126.538
10 0 59333  86142.000000  0    -876175.389   2978052.653   6139205.121
10 0 59333  86262.000000  0    -804330.146   3780066.845   5692359.958
10 0 59333  86382.000000  0    -704995.411   4514576.264   5145409.133
10 0 59334    102.000000  0    -581198.828   5168269.711   4507935.807
10 0 59334    222.000000  0    -436617.196   5729299.534   3791124.918
10 0 59334    342.000000  0    -275484.869   6187503.320   3007570.435
10 0 59334    462.000000  0    -102489.978   6534601.072   2171057.497
10 0 59334    582.000000  0      77342.835   6764355.875   1296313.883
10 0 59334    702.000000  0     258779.216   6872691.940    398745.246
10 0 59334    822.000000  0     436507.194   6857771.810   -505843.354
10 0 59334    942.000000  0     605272.110   6720028.080  -1401535.280
10 0 59334   1062.000000  0     760008.782   6462148.090  -2272590.978
10 0 59334   1182.000000  0     895968.731   6089014.597  -3103730.984
10 0 59334   1302.000000  0    1008840.358   5607603.748  -3880408.066
10 0 59334   1422.000000  0    1094858.609   5026842.996  -4589063.044
10 0 59334   1542.000000  0    1150901.543   4357432.940  -5217358.763
10 0 59334   1662.000000  0    1174571.639   3611638.778  -5754387.913
10 0 59334   1782.000000  0    1164259.859   2803057.055  -6190853.506
10 0 59334   1902.000000  0    1119191.839   1946361.392  -6519218.611
10 0 59334   2022.000000  0    1039455.444   1057035.202  -6733824.394
10 0 59334   2142.000000  0     926009.509    151094.280  -6830978.700
10 0 59334   2262.000000  0     780673.899   -755197.253  -6809012.518
10 0 59334   2382.000000  0     606100.348  -1645612.674  -6668304.109
10 0 59334   2502.000000  0     405725.593  -2504244.557  -6411272.215
10 0 59334   2622.000000  0     183706.863  -3315782.270  -6042341.351
10 0 59334   2742.000000  0     -55160.452  -4065783.009  -5567873.747
10 0 59334   2862.000000  0    -305539.835  -4740928.207  -4996069.489
10 0 59334   2982.000000  0    -561665.322  -5329263.856  -4336836.637
10 0 59334   3102.000000  0    -817466.175  -5820420.023  -3601630.332
10 0 59334   3222.000000  0   -1066701.706  -6205804.068  -2803262.165
10 0 59334   3342.000000  0   -1303103.507  -6478762.978  -1955682.877
10 0 59334   3462.000000  0   -1520522.095  -6634711.536  -1073740.478
10 0 59334   3582.000000  0   -1713073.943  -6671220.799   -172917.502
10 0 59334   3702.000000  0   -1875285.534  -6588063.982    730946.425
10 0 59334   3822.000000  0   -2002230.960  -6387218.331   1621940.882
10 0 59334   3942.000000  0   -2089659.043  -6072822.391   2484373.831
10 0 59334   4062.000000  0   -2134106.299  -5651089.195   3303057.064
10 0 59334   4182.000000  0   -2132992.664  -5130177.789   4063580.689
10 0 59334   4302.000000  0   -2084697.901  -4520027.579   4752570.810
10 0 59334   4422.000000  0   -1988617.564  -3832160.512   5357926.019
10 0 59334   4542.000000  0   -1845197.330  -3079454.106   5869029.649
10 0 59334   4662.000000  0   -1655943.457  -2275891.427   6276931.397
10 0 59334   4782.000000  0   -1423410.360  -1436296.274   6574497.770
10 0 59334   4902.000000  0   -1151166.851   -576056.253   6756531.351
10 0 59334   5022.000000  0    -843741.766    289161.337   6819855.052
10 0 59334   5142.000000  0    -506548.918   1143693.725   6763364.123
10 0 59334   5262.000000  0    -145791.628   1972165.816   6588044.824
10 0 59334   5382.000000  0     231651.261   2759766.592   6296958.151
10 0 59334   5502.000000  0     618355.554   3492513.811   5895189.504
10 0 59334   5622.000000  0    1006495.845   4157504.571   5389765.419
10 0 59334   5742.000000  0    1388001.911   4743146.920   4789536.606
10 0 59334   5862.000000  0    1754724.550   5239368.810   4105028.377
10 0 59334   5982.000000  0    2098607.593   5637798.343   3348261.076
10 0 59334   6102.000000  0    2411863.597   5931915.226   2532542.429
10 0 59334   6222.000000  0    2687146.484   6117167.127   1672230.461
10 0 59334   6342.000000  0    2917719.499   6191045.316    782475.271
10 0 59334   6462.000000  0    3097611.079   6153118.767   -121054.946
10 0 59334   6582.000000  0    3221757.278   6005027.273  -1022457.553
10 0 59334   6702.000000  0    3286126.631   5750432.385  -1905883.719
10 0 59334   6822.000000  0    3287823.901   5394928.709  -2755824.413
10 0 59334   6942.000000  0    3225170.455   4945916.797  -3557388.994
10 0 59334   7062.000000  0    3097758.238   4412440.870  -4296568.749
10 0 59334   7182.000000  0    2906477.508   3804998.321  -4960479.880
10 0 59334   7302.000000  0    2653517.850   3135325.293  -5537583.157
10 0 59334   7422.000000  0    2342344.090   2416163.250  -6017876.354
10 0 59334   7542.000000  0    1977646.556   1661012.111  -6393057.202
10 0 59334   7662.000000  0    1565268.128    883875.674  -6656654.688
10 0 59334   7782.000000  0    1112110.525     99004.457  -6804129.963
10 0 59334   7902.000000  0     626018.761   -679361.210  -6832947.262
10 0 59334   8022.000000  0     115646.666  -1437244.324  -6742611.341
10 0 59334   8142.000000  0    -409692.983  -2161174.815  -6534674.030
10 0 59334   8262.000000  0    -940193.780  -2838423.095  -6212712.138
10 0 59334   8382.000000  0   -1465734.447  -3457221.510  -5782272.425
10 0 59334   8502.000000  0   -1976067.011  -4006967.614  -5250785.451
10 0 59334   8622.000000  0   -2461013.301  -4478408.927  -4627449.723
10 0 59334   8742.000000  0   -2910666.931  -4863805.380  -3923083.627
10 0 59334   8862.000000  0   -3315595.423  -5157064.021  -3149946.644
10 0 59334   8982.000000  0   -3667038.480  -5353844.131  -2321533.241
10 0 59334   9102.000000  0   -3957098.738  -5451629.887  -1452341.066
10 0 59334   9222.000000  0   -4178919.542  -5449767.774   -557616.720
10 0 59334   9342.000000  0   -4326844.480  -5349467.054    346916.072
10 0 59334   9462.000000  0   -4396554.601  -5153762.627   1245339.962
10 0 59334   9582.000000  0   -4385179.525  -4867440.279   2121833.533
10 0 59334   9702.000000  0   -4291378.591  -4496925.714   2960959.085
10 0 59334   9822.000000  0   -4115390.974  -4050141.542   3747941.973
10 0 59334   9942.000000  0   -3859053.567  -3536335.846   4468936.746
99
